STARLINK-36738
1 67865U 26034R   26090.83335647 -.01860405  00000+0 -46814-1 0  9992
2 67865  53.1597 101.5960 0001399  83.6322 253.3555 15.42629913  6008
